ONEWEB-0291             
1 49081U 21075G   26167.25204944  .00000023  00000+0  24793-4 0  9992
2 49081  87.9136   6.0481 0002163  93.2680 266.8699 13.17648811233483
ONEWEB-0293             
1 49082U 21075H   26167.27735305  .00000025  00000+0  30171-4 0  9994
2 49082  87.9131   6.0464 0001895  93.0322 267.1027 13.17647961233510
ONEWEB-0294             
1 49083U 21075J   26167.26316794  .00000346  00000+0  92567-3 0  9993
2 49083  87.8947 350.8427 0001829 101.6124 258.5210 13.12443930234454
ONEWEB-0295             
1 49084U 21075K   26167.27651314  .00000001  00000+0 -31273-4 0  9992
2 49084  87.9131   6.0507 0002192  89.8056 270.3326 13.17648022233470
ONEWEB-0296             
1 49085U 21075L   26167.24282901 -.00000191  00000+0 -56508-3 0  9990
2 49085  87.8951 350.8541 0002147  94.0134 266.1241 13.12444512234454
ONEWEB-0297             
1 49086U 21075M   26167.27332998  .00000406  00000+0  10942-2 0  9994
2 49086  87.8936 350.8590 0001924  90.1750 269.9599 13.12443298235060
ONEWEB-0298             
1 49087U 21075N   26167.28086943  .00000010  00000+0 -78206-5 0  9994
2 49087  87.9131   6.0479 0001922  84.5978 275.5373 13.17647906233509
ONEWEB-0299             
1 49088U 21075P   26167.28242102  .00000056  00000+0  11132-3 0  9998
2 49088  87.9142   6.0277 0002029  86.6778 273.4585 13.17649980233481
ONEWEB-0300             
1 49089U 21075Q   26167.26570141  .00000344  00000+0  92157-3 0  9990
2 49089  87.8948 350.8398 0001839  78.5887 281.5448 13.12444070235082
ONEWEB-0301             
1 49090U 21075R   26167.24960050  .00000009  00000+0 -11588-4 0  9991
2 49090  87.8946 350.8413 0001690  80.4836 279.6484 13.12446002234445
ONEWEB-0302             
1 49091U 21075S   26167.23605447 -.00000394  00000+0 -11311-2 0  9997
2 49091  87.8949 350.8559 0001948  99.9545 260.1804 13.12443565234428
ONEWEB-0304             
1 49092U 21075T   26167.25710623  .00000009  00000+0 -89675-5 0  9996
2 49092  87.9133   6.0552 0002018  88.1488 271.9875 13.17649716233454
ONEWEB-0305             
1 49093U 21075U   26167.25035816  .00000000  00000+0 -32998-4 0  9997
2 49093  87.9141   6.0407 0002244  86.3393 273.7995 13.17649877233483
ONEWEB-0308             
1 49094U 21075V   26167.22927426 -.00000392  00000+0 -11245-2 0  9997
2 49094  87.8948 350.8490 0001785  90.5229 269.6104 13.12443383234435
ONEWEB-0309             
1 49095U 21075W   26167.25373039 -.00000011  00000+0 -61741-4 0  9992
2 49095  87.9133   6.0486 0001947 102.6000 257.5349 13.17648894233457
ONEWEB-0310             
1 49096U 21075X   26167.24451950 -.00000163  00000+0 -48731-3 0  9992
2 49096  87.8939 350.8680 0001806  91.5283 268.6052 13.12445085235065
